start=new Date('2021-10-22T00:00:00.000Z').valueOf();
sats=[{"PERIOD":"95.592","CENTER_NAME":"EARTH","OBJECT_NAME":"STARLINK-1144","RCS_SIZE":"LARGE","ECCENTRICITY":"0.00013860","MEAN_MOTION":"15.06407167","TLE_LINE2":"2 44933  53.0556 330.6736 0001386  87.8890 272.2258 15.06407167 99930","ARG_OF_PERICENTER":"87.8890","DECAY_DATE":null,"PERIAPSIS":"546.232","ELEMENT_SET_NO":"999","LAUNCH_DATE":"2020-01-07","EPOCH":"2021-10-21T09:13:30.076032","SEMIMAJOR_AXIS":"6925.327","RA_OF_ASC_NODE":"330.6736","TIME_SYSTEM":"UTC","EPHEMERIS_TYPE":"0","REV_AT_EPOCH":"9993","TLE_LINE1":"1 44933U 20001V   21294.38437588 -.00000577  00000-0 -19812-4 0  9996","MEAN_MOTION_DOT":"-0.00000577","APOAPSIS":"548.151","MEAN_ELEMENT_THEORY":"SGP4","REF_FRAME":"TEME","INCLINATION":"53.0556","BSTAR":"-0.00001981200000","CLASSIFICATION_TYPE":"U","OBJECT_TYPE":"PAYLOAD","NORAD_CAT_ID":"44933","COUNTRY_CODE":"US","GP_ID":"187808220","MEAN_MOTION_DDOT":"0.0000000000000","OBJECT_ID":"2020-001V","MEAN_ANOMALY":"272.2258","FILE":"3176553","SITE":"AFETR"},{"SITE":"AFETR","FILE":"3176553","MEAN_ANOMALY":"278.0043","OBJECT_ID":"2020-001W","MEAN_MOTION_DDOT":"0.0000000000000","GP_ID":"187808470","COUNTRY_CODE":"US","NORAD_CAT_ID":"44934","OBJECT_TYPE":"PAYLOAD","CLASSIFICATION_TYPE":"U","BSTAR":"-0.00002263400000","INCLINATION":"53.0547","REF_FRAME":"TEME","MEAN_ELEMENT_THEORY":"SGP4","APOAPSIS":"548.243","MEAN_MOTION_DOT":"-0.00000618","TLE_LINE1":"1 44934U 20001W   21294.33092808 -.00000618  00000-0 -22634-4 0  9996","REV_AT_EPOCH":"9891","TIME_SYSTEM":"UTC","EPHEMERIS_TYPE":"0","RA_OF_ASC_NODE":"310.9129","LAUNCH_DATE":"2020-01-07","EPOCH":"2021-10-21T07:56:32.186112","SEMIMAJOR_AXIS":"6925.373","PERIAPSIS":"546.233","ELEMENT_SET_NO":"999","DECAY_DATE":null,"TLE_LINE2":"2 44934  53.0547 310.9129 0001451  82.1111 278.0043 15.06392066 98919","MEAN_MOTION":"15.06392066","ARG_OF_PERICENTER":"82.1111","ECCENTRICITY":"0.00014510","RCS_SIZE":"LARGE","OBJECT_NAME":"STARLINK-1071","CENTER_NAME":"EARTH","PERIOD":"95.593"},{"RCS_SIZE":"LARGE","ECCENTRICITY":"0.00025470","CENTER_NAME":"EARTH","PERIOD":"91.634","OBJECT_NAME":"STARLINK-1072","EPHEMERIS_TYPE":"0","TIME_SYSTEM":"UTC","RA_OF_ASC_NODE":"286.0241","APOAPSIS":"356.427","MEAN_MOTION_DOT":"0.00004965","TLE_LINE1":"1 44935U 20001X   21294.39687026  .00004965  00000-0  42697-4 0  9993","REV_AT_EPOCH":"9927","DECAY_DATE":null,"TLE_LINE2":"2 44935  53.0523 286.0241 0002547  20.0951 340.0166 15.71464864 99276","MEAN_MOTION":"15.71464864","ARG_OF_PERICENTER":"20.0951","EPOCH":"2021-10-21T09:31:29.590464","LAUNCH_DATE":"2020-01-07","SEMIMAJOR_AXIS":"6732.847","ELEMENT_SET_NO":"999","PERIAPSIS":"352.997","CLASSIFICATION_TYPE":"U","COUNTRY_CODE":"US","NORAD_CAT_ID":"44935","OBJECT_TYPE":"PAYLOAD","REF_FRAME":"TEME","MEAN_ELEMENT_THEORY":"SGP4","BSTAR":"0.00004269700000","INCLINATION":"53.0523","OBJECT_ID":"2020-001X","SITE":"AFETR","FILE":"3176553","MEAN_ANOMALY":"340.0166","GP_ID":"187809716","MEAN_MOTION_DDOT":"0.0000000000000"},{"FILE":"3176351","SITE":"AFETR","MEAN_ANOMALY":"277.6172","OBJECT_ID":"2020-001Z","MEAN_MOTION_DDOT":"0.0000000000000","GP_ID":"187784757","NORAD_CAT_ID":"44937","COUNTRY_CODE":"US","OBJECT_TYPE":"PAYLOAD","CLASSIFICATION_TYPE":"U","INCLINATION":"53.0533","BSTAR":"-0.00002771000000","REF_FRAME":"TEME","MEAN_ELEMENT_THEORY":"SGP4","APOAPSIS":"548.216","MEAN_MOTION_DOT":"-0.00000694","TLE_LINE1":"1 44937U 20001Z   21294.50784871 -.00000694  00000-0 -27710-4 0  9990","REV_AT_EPOCH":"9894","RA_OF_ASC_NODE":"310.1265","TIME_SYSTEM":"UTC","EPHEMERIS_TYPE":"0","SEMIMAJOR_AXIS":"6925.360","LAUNCH_DATE":"2020-01-07","EPOCH":"2021-10-21T12:11:18.128544","ELEMENT_SET_NO":"999","PERIAPSIS":"546.234","DECAY_DATE":null,"ARG_OF_PERICENTER":"82.4979","TLE_LINE2":"2 44937  53.0533 310.1265 0001431  82.4979 277.6172 15.06396168 98941","MEAN_MOTION":"15.06396168","ECCENTRICITY":"0.00014310","RCS_SIZE":"LARGE","OBJECT_NAME":"STARLINK-1079","CENTER_NAME":"EARTH","PERIOD":"95.592"},{"DECAY_DATE":null,"TLE_LINE2":"2 44938  53.0536 309.9685 0001191  81.3508 278.7616 15.06394011 98946","ARG_OF_PERICENTER":"81.3508","MEAN_MOTION":"15.06394011","EPOCH":"2021-10-21T12:59:04.004448","LAUNCH_DATE":"2020-01-07","SEMIMAJOR_AXIS":"6925.367","ELEMENT_SET_NO":"999","PERIAPSIS":"546.407","EPHEMERIS_TYPE":"0","TIME_SYSTEM":"UTC","RA_OF_ASC_NODE":"309.9685","MEAN_MOTION_DOT":"-0.00002026","APOAPSIS":"548.057","TLE_LINE1":"1 44938U 20001AA  21294.54101857 -.00002026  00000-0 -11718-3 0  9993","REV_AT_EPOCH":"9894","CENTER_NAME":"EARTH","PERIOD":"95.593","OBJECT_NAME":"STARLINK-1082","RCS_SIZE":"LARGE","ECCENTRICITY":"0.00011910","GP_ID":"187837867","MEAN_MOTION_DDOT":"0.0000000000000","OBJECT_ID":"2020-001AA","SITE":"AFETR","FILE":"3176920","MEAN_ANOMALY":"278.7616","REF_FRAME":"TEME","MEAN_ELEMENT_THEORY":"SGP4","BSTAR":"-0.00011718000000","INCLINATION":"53.0536","CLASSIFICATION_TYPE":"U","COUNTRY_CODE":"US","NORAD_CAT_ID":"44938","OBJECT_TYPE":"PAYLOAD"},{"ECCENTRICITY":"0.00014000","RCS_SIZE":"LARGE","OBJECT_NAME":"STARLINK-1083","PERIOD":"95.593","CENTER_NAME":"EARTH","TLE_LINE1":"1 44939U 20001AB  21294.34936648 -.00001762  00000-0 -99422-4 0  9991","REV_AT_EPOCH":"9891","APOAPSIS":"548.213","MEAN_MOTION_DOT":"-0.00001762","EPHEMERIS_TYPE":"0","TIME_SYSTEM":"UTC","RA_OF_ASC_NODE":"310.8389","PERIAPSIS":"546.274","ELEMENT_SET_NO":"999","SEMIMAJOR_AXIS":"6925.378","LAUNCH_DATE":"2020-01-07","EPOCH":"2021-10-21T08:23:05.263872","TLE_LINE2":"2 44939  53.0542 310.8389 0001400  87.1987 272.9162 15.06390257 98911","MEAN_MOTION":"15.06390257","ARG_OF_PERICENTER":"87.1987","DECAY_DATE":null,"OBJECT_TYPE":"PAYLOAD","COUNTRY_CODE":"US","NORAD_CAT_ID":"44939","CLASSIFICATION_TYPE":"U","BSTAR":"-0.00009942200000","INCLINATION":"53.0542","MEAN_ELEMENT_THEORY":"SGP4","REF_FRAME":"TEME","MEAN_ANOMALY":"272.9162","SITE":"AFETR","FILE":"3176553","OBJECT_ID":"2020-001AB","MEAN_MOTION_DDOT":"0.0000000000000","GP_ID":"187808970"},{"GP_ID":"187809217","MEAN_MOTION_DDOT":"0.0000000000000","OBJECT_ID":"2020-001AC","MEAN_ANOMALY":"280.0861","FILE":"3176553","SITE":"AFETR","MEAN_ELEMENT_THEORY":"SGP4","REF_FRAME":"TEME","INCLINATION":"53.0546","BSTAR":"-0.00002663800000","CLASSIFICATION_TYPE":"U","OBJECT_TYPE":"PAYLOAD","NORAD_CAT_ID":"44940","COUNTRY_CODE":"US","TLE_LINE2":"2 44940  53.0546 310.7787 0001380  80.0283 280.0861 15.06386656 98910","MEAN_MOTION":"15.06386656","ARG_OF_PERICENTER":"80.0283","DECAY_DATE":null,"ELEMENT_SET_NO":"999","PERIAPSIS":"546.299","SEMIMAJOR_AXIS":"6925.389","LAUNCH_DATE":"2020-01-07","EPOCH":"2021-10-21T08:39:00.715680","RA_OF_ASC_NODE":"310.7787","TIME_SYSTEM":"UTC","EPHEMERIS_TYPE":"0","REV_AT_EPOCH":"9891","TLE_LINE1":"1 44940U 20001AC  21294.36042495 -.00000678  00000-0 -26638-4 0  9997","MEAN_MOTION_DOT":"-0.00000678","APOAPSIS":"548.210","PERIOD":"95.593","CENTER_NAME":"EARTH","OBJECT_NAME":"STARLINK-1091","RCS_SIZE":"LARGE","ECCENTRICITY":"0.00013800"},{"RCS_SIZE":"LARGE","ECCENTRICITY":"0.00012190","PERIOD":"95.592","CENTER_NAME":"EARTH","OBJECT_NAME":"STARLINK-1094","RA_OF_ASC_NODE":"310.0845","EPHEMERIS_TYPE":"0","TIME_SYSTEM":"UTC","REV_AT_EPOCH":"9894","TLE_LINE1":"1 44941U 20001AD  21294.51521329 -.00000231  00000-0  33559-5 0  9998","MEAN_MOTION_DOT":"-0.00000231","APOAPSIS":"548.053","ARG_OF_PERICENTER":"76.9300","TLE_LINE2":"2 44941  53.0546 310.0845 0001219  76.9300 283.1825 15.06401414 98941","MEAN_MOTION":"15.06401414","DECAY_DATE":null,"PERIAPSIS":"546.365","ELEMENT_SET_NO":"999","EPOCH":"2021-10-21T12:21:54.428256","LAUNCH_DATE":"2020-01-07","SEMIMAJOR_AXIS":"6925.344","CLASSIFICATION_TYPE":"U","OBJECT_TYPE":"PAYLOAD","NORAD_CAT_ID":"44941","COUNTRY_CODE":"US","MEAN_ELEMENT_THEORY":"SGP4","REF_FRAME":"TEME","INCLINATION":"53.0546","BSTAR":"0.00000335590000","OBJECT_ID":"2020-001AD","MEAN_ANOMALY":"283.1825","FILE":"3176553","SITE":"AFETR","GP_ID":"187809471","MEAN_MOTION_DDOT":"0.0000000000000"},{"RCS_SIZE":"LARGE","ECCENTRICITY":"0.00013120","CENTER_NAME":"EARTH","PERIOD":"95.593","OBJECT_NAME":"STARLINK-1096","TIME_SYSTEM":"UTC","EPHEMERIS_TYPE":"0","RA_OF_ASC_NODE":"309.8614","MEAN_MOTION_DOT":"-0.00000466","APOAPSIS":"548.148","REV_AT_EPOCH":"9895","TLE_LINE1":"1 44942U 20001AE  21294.56683252 -.00000466  00000-0 -12387-4 0  9994","DECAY_DATE":null,"ARG_OF_PERICENTER":"85.3095","TLE_LINE2":"2 44942  53.0537 309.8614 0001312  85.3095 274.8044 15.06391415 98951","MEAN_MOTION":"15.06391415","LAUNCH_DATE":"2020-01-07","SEMIMAJOR_AXIS":"6925.375","EPOCH":"2021-10-21T13:36:14.329728","ELEMENT_SET_NO":"999","PERIAPSIS":"546.331","CLASSIFICATION_TYPE":"U","COUNTRY_CODE":"US","NORAD_CAT_ID":"44942","OBJECT_TYPE":"PAYLOAD","REF_FRAME":"TEME","MEAN_ELEMENT_THEORY":"SGP4","BSTAR":"-0.00001238700000","INCLINATION":"53.0537","OBJECT_ID":"2020-001AE","SITE":"AFETR","FILE":"3176920","MEAN_ANOMALY":"274.8044","GP_ID":"187838367","MEAN_MOTION_DDOT":"0.0000000000000"},{"OBJECT_NAME":"STARLINK-1100","CENTER_NAME":"EARTH","PERIOD":"95.593","ECCENTRICITY":"0.00013820","RCS_SIZE":"LARGE","SEMIMAJOR_AXIS":"6925.405","LAUNCH_DATE":"2020-01-07","EPOCH":"2021-10-21T09:53:18.971232","ELEMENT_SET_NO":"999","PERIAPSIS":"546.313","DECAY_DATE":null,"TLE_LINE2":"2 44943  53.0542 310.5547 0001382  90.8630 269.2517 15.06381531 98923","ARG_OF_PERICENTER":"90.8630","MEAN_MOTION":"15.06381531","APOAPSIS":"548.227","MEAN_MOTION_DOT":"-0.00000692","TLE_LINE1":"1 44943U 20001AF  21294.41202513 -.00000692  00000-0 -27616-4 0  9998","REV_AT_EPOCH":"9892","EPHEMERIS_TYPE":"0","TIME_SYSTEM":"UTC","RA_OF_ASC_NODE":"310.5547","BSTAR":"-0.00002761600000","INCLINATION":"53.0542","REF_FRAME":"TEME","MEAN_ELEMENT_THEORY":"SGP4","COUNTRY_CODE":"US","NORAD_CAT_ID":"44943","OBJECT_TYPE":"PAYLOAD","CLASSIFICATION_TYPE":"U","MEAN_MOTION_DDOT":"0.0000000000000","GP_ID":"187808471","SITE":"AFETR","FILE":"3176553","MEAN_ANOMALY":"269.2517","OBJECT_ID":"2020-001AF"}];
